start=new Date('2022-01-01T00:00:00.000Z').valueOf();
sats=[{"CENTER_NAME":"EARTH","RA_OF_ASC_NODE":"257.2746","PERIAPSIS":"425.041","SITE":"AFETR","INCLINATION":"53.2164","OBJECT_TYPE":"PAYLOAD","ARG_OF_PERICENTER":"102.6923","REF_FRAME":"TEME","EPHEMERIS_TYPE":"0","FILE":"3255242","MEAN_MOTION":"15.47045861","CLASSIFICATION_TYPE":"U","ECCENTRICITY":"0.00004920","MEAN_MOTION_DDOT":"0.0000000000000","RCS_SIZE":"LARGE","NORAD_CAT_ID":"49418","MEAN_ELEMENT_THEORY":"SGP4","TLE_LINE2":"2 49418  53.2164 257.2746 0000492 102.6923 257.4141 15.47045861  7721","MEAN_MOTION_DOT":"-0.00283831","DECAY_DATE":null,"LAUNCH_DATE":"2021-11-13","COUNTRY_CODE":"US","OBJECT_ID":"2021-104L","ELEMENT_SET_NO":"999","APOAPSIS":"425.710","OBJECT_NAME":"STARLINK-3111","SEMIMAJOR_AXIS":"6803.510","BSTAR":"-0.00571910000000","TLE_LINE1":"1 49418U 21104L   21365.54972042 -.00283831  00000-0 -57191-2 0  9996","GP_ID":"192821770","PERIOD":"93.081","MEAN_ANOMALY":"257.4141","REV_AT_EPOCH":"772","EPOCH":"2021-12-31T13:11:35.844288","TIME_SYSTEM":"UTC"},{"CENTER_NAME":"EARTH","PERIAPSIS":"426.440","RA_OF_ASC_NODE":"257.0962","INCLINATION":"53.2172","SITE":"AFETR","REF_FRAME":"TEME","ARG_OF_PERICENTER":"61.6037","OBJECT_TYPE":"PAYLOAD","EPHEMERIS_TYPE":"0","MEAN_MOTION":"15.46362141","FILE":"3255242","ECCENTRICITY":"0.00013820","MEAN_MOTION_DDOT":"0.0000000000000","RCS_SIZE":"LARGE","CLASSIFICATION_TYPE":"U","NORAD_CAT_ID":"49419","MEAN_MOTION_DOT":"-0.00654034","DECAY_DATE":null,"LAUNCH_DATE":"2021-11-13","TLE_LINE2":"2 49419  53.2172 257.0962 0001382  61.6037 153.2003 15.46362141  3681","MEAN_ELEMENT_THEORY":"SGP4","ELEMENT_SET_NO":"999","COUNTRY_CODE":"US","OBJECT_ID":"2021-104M","OBJECT_NAME":"STARLINK-3120","APOAPSIS":"428.321","PERIOD":"93.122","SEMIMAJOR_AXIS":"6805.516","TLE_LINE1":"1 49419U 21104M   21365.58334491 -.00654034  00000-0 -14158-1 0  9993","BSTAR":"-0.01415800000000","GP_ID":"192820532","MEAN_ANOMALY":"153.2003","REV_AT_EPOCH":"368","EPOCH":"2021-12-31T14:00:01.000224","TIME_SYSTEM":"UTC"},{"CLASSIFICATION_TYPE":"U","RCS_SIZE":"LARGE","ECCENTRICITY":"0.00014090","MEAN_MOTION_DDOT":"0.0000000000000","FILE":"3255242","MEAN_MOTION":"15.46137715","EPHEMERIS_TYPE":"0","OBJECT_TYPE":"PAYLOAD","REF_FRAME":"TEME","ARG_OF_PERICENTER":"60.8516","SITE":"AFETR","INCLINATION":"53.2172","PERIAPSIS":"427.080","RA_OF_ASC_NODE":"257.0988","CENTER_NAME":"EARTH","TIME_SYSTEM":"UTC","EPOCH":"2021-12-31T14:00:01.000224","REV_AT_EPOCH":"368","MEAN_ANOMALY":"135.5668","TLE_LINE1":"1 49420U 21104N   21365.58334491 -.00654394  00000-0 -14277-1 0  9996","GP_ID":"192820782","BSTAR":"-0.01427700000000","SEMIMAJOR_AXIS":"6806.174","PERIOD":"93.135","OBJECT_NAME":"STARLINK-3110","APOAPSIS":"428.998","OBJECT_ID":"2021-104N","COUNTRY_CODE":"US","ELEMENT_SET_NO":"999","MEAN_ELEMENT_THEORY":"SGP4","TLE_LINE2":"2 49420  53.2172 257.0988 0001409  60.8516 135.5668 15.46137715  3681","DECAY_DATE":null,"LAUNCH_DATE":"2021-11-13","MEAN_MOTION_DOT":"-0.00654394","NORAD_CAT_ID":"49420"},{"TIME_SYSTEM":"UTC","EPOCH":"2021-12-31T14:00:01.000224","MEAN_ANOMALY":"167.6685","REV_AT_EPOCH":"368","PERIOD":"93.108","SEMIMAJOR_AXIS":"6804.841","GP_ID":"192822033","TLE_LINE1":"1 49421U 21104P   21365.58334491 -.00653626  00000-0 -14036-1 0  9997","BSTAR":"-0.01403600000000","OBJECT_NAME":"STARLINK-3112","APOAPSIS":"427.620","ELEMENT_SET_NO":"999","COUNTRY_CODE":"US","OBJECT_ID":"2021-104P","DECAY_DATE":null,"MEAN_MOTION_DOT":"-0.00653626","LAUNCH_DATE":"2021-11-13","TLE_LINE2":"2 49421  53.2173 257.0942 0001344  64.8420 167.6685 15.46592157  3689","MEAN_ELEMENT_THEORY":"SGP4","NORAD_CAT_ID":"49421","ECCENTRICITY":"0.00013440","MEAN_MOTION_DDOT":"0.0000000000000","RCS_SIZE":"LARGE","CLASSIFICATION_TYPE":"U","MEAN_MOTION":"15.46592157","FILE":"3255242","EPHEMERIS_TYPE":"0","ARG_OF_PERICENTER":"64.8420","REF_FRAME":"TEME","OBJECT_TYPE":"PAYLOAD","INCLINATION":"53.2173","SITE":"AFETR","RA_OF_ASC_NODE":"257.0942","PERIAPSIS":"425.791","CENTER_NAME":"EARTH"},{"SEMIMAJOR_AXIS":"6805.853","TLE_LINE1":"1 49422U 21104Q   21365.58334491 -.00654345  00000-0 -14222-1 0  9994","GP_ID":"192822271","BSTAR":"-0.01422200000000","PERIOD":"93.129","MEAN_ANOMALY":"140.9941","REV_AT_EPOCH":"368","EPOCH":"2021-12-31T14:00:01.000224","TIME_SYSTEM":"UTC","NORAD_CAT_ID":"49422","MEAN_ELEMENT_THEORY":"SGP4","TLE_LINE2":"2 49422  53.2172 257.0969 0001352  64.9055 140.9941 15.46247177  3680","DECAY_DATE":null,"LAUNCH_DATE":"2021-11-13","MEAN_MOTION_DOT":"-0.00654345","COUNTRY_CODE":"US","OBJECT_ID":"2021-104Q","ELEMENT_SET_NO":"999","OBJECT_NAME":"STARLINK-3161","APOAPSIS":"428.638","EPHEMERIS_TYPE":"0","FILE":"3255242","MEAN_MOTION":"15.46247177","CLASSIFICATION_TYPE":"U","ECCENTRICITY":"0.00013520","MEAN_MOTION_DDOT":"0.0000000000000","RCS_SIZE":"LARGE","CENTER_NAME":"EARTH","RA_OF_ASC_NODE":"257.0969","PERIAPSIS":"426.798","SITE":"AFETR","INCLINATION":"53.2172","OBJECT_TYPE":"PAYLOAD","REF_FRAME":"TEME","ARG_OF_PERICENTER":"64.9055"},{"RA_OF_ASC_NODE":"257.0919","PERIAPSIS":"425.144","CENTER_NAME":"EARTH","OBJECT_TYPE":"PAYLOAD","REF_FRAME":"TEME","ARG_OF_PERICENTER":"69.3790","SITE":"AFETR","INCLINATION":"53.2173","EPHEMERIS_TYPE":"0","CLASSIFICATION_TYPE":"U","RCS_SIZE":"LARGE","ECCENTRICITY":"0.00013050","MEAN_MOTION_DDOT":"0.0000000000000","FILE":"3255242","MEAN_MOTION":"15.46822080","MEAN_ELEMENT_THEORY":"SGP4","TLE_LINE2":"2 49423  53.2173 257.0919 0001305  69.3790 180.7020 15.46822080  3682","DECAY_DATE":null,"LAUNCH_DATE":"2021-11-13","MEAN_MOTION_DOT":"-0.00653006","NORAD_CAT_ID":"49423","OBJECT_NAME":"STARLINK-3149","APOAPSIS":"426.919","OBJECT_ID":"2021-104R","COUNTRY_CODE":"US","ELEMENT_SET_NO":"999","REV_AT_EPOCH":"368","MEAN_ANOMALY":"180.7020","GP_ID":"192821033","TLE_LINE1":"1 49423U 21104R   21365.58334491 -.00653006  00000-0 -13910-1 0  9991","BSTAR":"-0.01391000000000","SEMIMAJOR_AXIS":"6804.167","PERIOD":"93.094","TIME_SYSTEM":"UTC","EPOCH":"2021-12-31T14:00:01.000224"},{"INCLINATION":"53.2173","SITE":"AFETR","REF_FRAME":"TEME","ARG_OF_PERICENTER":"69.8240","OBJECT_TYPE":"PAYLOAD","CENTER_NAME":"EARTH","RA_OF_ASC_NODE":"257.0951","PERIAPSIS":"426.150","MEAN_MOTION":"15.46477181","FILE":"3255242","RCS_SIZE":"LARGE","ECCENTRICITY":"0.00013130","MEAN_MOTION_DDOT":"0.0000000000000","CLASSIFICATION_TYPE":"U","EPHEMERIS_TYPE":"0","ELEMENT_SET_NO":"999","OBJECT_ID":"2021-104S","COUNTRY_CODE":"US","APOAPSIS":"427.937","OBJECT_NAME":"STARLINK-3135","NORAD_CAT_ID":"49424","DECAY_DATE":null,"MEAN_MOTION_DOT":"-0.00653914","LAUNCH_DATE":"2021-11-13","TLE_LINE2":"2 49424  53.2173 257.0951 0001313  69.8240 153.8503 15.46477181  3688","MEAN_ELEMENT_THEORY":"SGP4","EPOCH":"2021-12-31T14:00:01.000224","TIME_SYSTEM":"UTC","PERIOD":"93.115","TLE_LINE1":"1 49424U 21104S   21365.58334491 -.00653914  00000-0 -14099-1 0  9999","GP_ID":"192821283","BSTAR":"-0.01409900000000","SEMIMAJOR_AXIS":"6805.178","REV_AT_EPOCH":"368","MEAN_ANOMALY":"153.8503"},{"OBJECT_TYPE":"PAYLOAD","ARG_OF_PERICENTER":"73.2836","REF_FRAME":"TEME","SITE":"AFETR","INCLINATION":"53.2173","RA_OF_ASC_NODE":"257.0907","PERIAPSIS":"424.827","CENTER_NAME":"EARTH","CLASSIFICATION_TYPE":"U","MEAN_MOTION_DDOT":"0.0000000000000","ECCENTRICITY":"0.00012740","RCS_SIZE":"LARGE","FILE":"3255242","MEAN_MOTION":"15.46937079","EPHEMERIS_TYPE":"0","OBJECT_NAME":"STARLINK-3139","APOAPSIS":"426.561","COUNTRY_CODE":"US","OBJECT_ID":"2021-104T","ELEMENT_SET_NO":"999","TLE_LINE2":"2 49425  53.2173 257.0907 0001274  73.2836 185.5314 15.46937079  3685","MEAN_ELEMENT_THEORY":"SGP4","DECAY_DATE":null,"MEAN_MOTION_DOT":"-0.00652810","LAUNCH_DATE":"2021-11-13","NORAD_CAT_ID":"49425","TIME_SYSTEM":"UTC","EPOCH":"2021-12-31T14:00:01.000224","MEAN_ANOMALY":"185.5314","REV_AT_EPOCH":"368","SEMIMAJOR_AXIS":"6803.829","TLE_LINE1":"1 49425U 21104T   21365.58334491 -.00652810  00000-0 -13850-1 0  9998","GP_ID":"192821534","BSTAR":"-0.01385000000000","PERIOD":"93.087"},{"NORAD_CAT_ID":"49426","TLE_LINE2":"2 49426  53.2173 257.0929 0001298  73.3133 167.9995 15.46707071  3683","MEAN_ELEMENT_THEORY":"SGP4","DECAY_DATE":null,"LAUNCH_DATE":"2021-11-13","MEAN_MOTION_DOT":"-0.00653187","OBJECT_ID":"2021-104U","COUNTRY_CODE":"US","ELEMENT_SET_NO":"999","OBJECT_NAME":"STARLINK-3114","APOAPSIS":"427.252","TLE_LINE1":"1 49426U 21104U   21365.58334491 -.00653187  00000-0 -13970-1 0  9990","BSTAR":"-0.01397000000000","GP_ID":"192821771","SEMIMAJOR_AXIS":"6804.504","PERIOD":"93.101","REV_AT_EPOCH":"368","MEAN_ANOMALY":"167.9995","EPOCH":"2021-12-31T14:00:01.000224","TIME_SYSTEM":"UTC","CENTER_NAME":"EARTH","PERIAPSIS":"425.486","RA_OF_ASC_NODE":"257.0929","SITE":"AFETR","INCLINATION":"53.2173","OBJECT_TYPE":"PAYLOAD","REF_FRAME":"TEME","ARG_OF_PERICENTER":"73.3133","EPHEMERIS_TYPE":"0","FILE":"3255242","MEAN_MOTION":"15.46707071","CLASSIFICATION_TYPE":"U","RCS_SIZE":"LARGE","MEAN_MOTION_DDOT":"0.0000000000000","ECCENTRICITY":"0.00012980"},{"CLASSIFICATION_TYPE":"U","MEAN_MOTION_DDOT":"0.0000000000000","ECCENTRICITY":"0.00012570","RCS_SIZE":"LARGE","FILE":"3255242","MEAN_MOTION":"15.47052053","EPHEMERIS_TYPE":"0","OBJECT_TYPE":"PAYLOAD","REF_FRAME":"TEME","ARG_OF_PERICENTER":"73.4229","SITE":"AFETR","INCLINATION":"53.2173","PERIAPSIS":"424.502","RA_OF_ASC_NODE":"257.0894","CENTER_NAME":"EARTH","TIME_SYSTEM":"UTC","EPOCH":"2021-12-31T14:00:01.000224","MEAN_ANOMALY":"194.0922","REV_AT_EPOCH":"368","SEMIMAJOR_AXIS":"6803.492","TLE_LINE1":"1 49427U 21104V   21365.58334491 -.00652562  00000-0 -13789-1 0  9995","BSTAR":"-0.01378900000000","GP_ID":"192820533","PERIOD":"93.080","APOAPSIS":"426.212","OBJECT_NAME":"STARLINK-3131","COUNTRY_CODE":"US","OBJECT_ID":"2021-104V","ELEMENT_SET_NO":"999","TLE_LINE2":"2 49427  53.2173 257.0894 0001257  73.4229 194.0922 15.47052053  3682","MEAN_ELEMENT_THEORY":"SGP4","DECAY_DATE":null,"MEAN_MOTION_DOT":"-0.00652562","LAUNCH_DATE":"2021-11-13","NORAD_CAT_ID":"49427"}];
